{
  "type": "FeatureCollection",
  "features": [
    {
      "type": "Feature",
      "properties": {
        "norad_id": 40069,
        "name": "METEOR-M 2",
        "group": "weather",
        "lat": 25.662450089875662,
        "lon": 159.57965396230776,
        "alt_km": 815.9737599564987,
        "timestamp": "2025-12-24T07:45:05.841699+00:00",
        "meta_object_name": "METEOR-M 2",
        "meta_object_id": "2014-037A",
        "meta_epoch": "2025-12-23T22:34:56.944704",
        "meta_mean_motion": 14.21389867,
        "meta_eccentricity": 0.00055913,
        "meta_inclination": 98.4913,
        "meta_ra_of_asc_node": 335.0962,
        "meta_arg_of_pericenter": 174.6174,
        "meta_mean_anomaly": 185.5065,
        "meta_ephemeris_type": 0,
        "meta_classification_type": "U",
        "meta_norad_cat_id": 40069,
        "meta_element_set_no": 999,
        "meta_rev_at_epoch": 59442,
        "meta_bstar": 1.2530666e-05,
        "meta_mean_motion_dot": -1.5e-07,
        "meta_mean_motion_ddot": 0,
        "tle_line1": "1 40069U 14037A   25357.94093686 -.00000015  00000+0  12531-4 0  9993",
        "tle_line2": "2 40069  98.4913 335.0962 0005591 174.6174 185.5065 14.21389867594426"
      },
      "geometry": {
        "type": "Point",
        "coordinates": [
          159.57965396230776,
          25.662450089875662
        ]
      }
    },
    {
      "type": "Feature",
      "properties": {
        "norad_id": 40267,
        "name": "HIMAWARI-8",
        "group": "weather",
        "lat": 0.019524603373908104,
        "lon": -9.957001686782322,
        "alt_km": 35783.565440371814,
        "timestamp": "2025-12-24T07:45:05.841712+00:00",
        "meta_object_name": "HIMAWARI-8",
        "meta_object_id": "2014-060A",
        "meta_epoch": "2025-12-23T20:38:53.749248",
        "meta_mean_motion": 1.00271877,
        "meta_eccentricity": 8.625e-05,
        "meta_inclination": 0.0448,
        "meta_ra_of_asc_node": 209.3766,
        "meta_arg_of_pericenter": 95.0712,
        "meta_mean_anomaly": 238.5881,
        "meta_ephemeris_type": 0,
        "meta_classification_type": "U",
        "meta_norad_cat_id": 40267,
        "meta_element_set_no": 999,
        "meta_rev_at_epoch": 4100,
        "meta_bstar": 0,
        "meta_mean_motion_dot": -2.54e-06,
        "meta_mean_motion_ddot": 0,
        "tle_line1": "1 40267U 14060A   25357.86034432 -.00000254  00000+0  00000+0 0  9992",
        "tle_line2": "2 40267   0.0448 209.3766 0000862  95.0712 238.5881  1.00271877 41003"
      },
      "geometry": {
        "type": "Point",
        "coordinates": [
          -9.957001686782322,
          0.019524603373908104
        ]
      }
    },
    {
      "type": "Feature",
      "properties": {
        "norad_id": 40367,
        "name": "FENGYUN 2G",
        "group": "weather",
        "lat": -4.202118552044212,
        "lon": -51.51913805730344,
        "alt_km": 35779.94927209076,
        "timestamp": "2025-12-24T07:45:05.841724+00:00",
        "meta_object_name": "FENGYUN 2G",
        "meta_object_id": "2014-090A",
        "meta_epoch": "2025-12-23T18:44:19.570848",
        "meta_mean_motion": 1.00283037,
        "meta_eccentricity": 0.00017935,
        "meta_inclination": 5.1935,
        "meta_ra_of_asc_node": 74.9603,
        "meta_arg_of_pericenter": 171.7462,
        "meta_mean_anomaly": 226.1214,
        "meta_ephemeris_type": 0,
        "meta_classification_type": "U",
        "meta_norad_cat_id": 40367,
        "meta_element_set_no": 999,
        "meta_rev_at_epoch": 4024,
        "meta_bstar": 0,
        "meta_mean_motion_dot": -2.82e-06,
        "meta_mean_motion_ddot": 0,
        "tle_line1": "1 40367U 14090A   25357.78078207 -.00000282  00000+0  00000+0 0  9996",
        "tle_line2": "2 40367   5.1935  74.9603 0001793 171.7462 226.1214  1.00283037 40244"
      },
      "geometry": {
        "type": "Point",
        "coordinates": [
          -51.51913805730344,
          -4.202118552044212
        ]
      }
    },
    {
      "type": "Feature",
      "properties": {
        "norad_id": 40732,
        "name": "METEOSAT-11 (MSG-4)",
        "group": "weather",
        "lat": 1.5144204272913873,
        "lon": -141.41270031991542,
        "alt_km": 35783.00720539824,
        "timestamp": "2025-12-24T07:45:05.841737+00:00",
        "meta_object_name": "METEOSAT-11 (MSG-4)",
        "meta_object_id": "2015-034A",
        "meta_epoch": "2025-12-23T21:44:09.996864",
        "meta_mean_motion": 1.00270988,
        "meta_eccentricity": 7.404e-05,
        "meta_inclination": 2.7643,
        "meta_ra_of_asc_node": 71.9712,
        "meta_arg_of_pericenter": 137.19,
        "meta_mean_anomaly": 218.7543,
        "meta_ephemeris_type": 0,
        "meta_classification_type": "U",
        "meta_norad_cat_id": 40732,
        "meta_element_set_no": 999,
        "meta_rev_at_epoch": 545,
        "meta_bstar": 0,
        "meta_mean_motion_dot": 8.1e-07,
        "meta_mean_motion_ddot": 0,
        "tle_line1": "1 40732U 15034A   25357.90567126  .00000081  00000+0  00000+0 0  9994",
        "tle_line2": "2 40732   2.7643  71.9712 0000740 137.1900 218.7543  1.00270988  5458"
      },
      "geometry": {
        "type": "Point",
        "coordinates": [
          -141.41270031991542,
          1.5144204272913873
        ]
      }
    },
    {
      "type": "Feature",
      "properties": {
        "norad_id": 41105,
        "name": "ELEKTRO-L 2",
        "group": "weather",
        "lat": 5.293983612617259,
        "lon": -164.97947687215938,
        "alt_km": 35784.309345243775,
        "timestamp": "2025-12-24T07:45:05.841749+00:00",
        "meta_object_name": "ELEKTRO-L 2",
        "meta_object_id": "2015-074A",
        "meta_epoch": "2025-12-23T21:37:25.643136",
        "meta_mean_motion": 1.00272258,
        "meta_eccentricity": 0.00035137,
        "meta_inclination": 6.2519,
        "meta_ra_of_asc_node": 72.6954,
        "meta_arg_of_pericenter": 208.5036,
        "meta_mean_anomaly": 121.373,
        "meta_ephemeris_type": 0,
        "meta_classification_type": "U",
        "meta_norad_cat_id": 41105,
        "meta_element_set_no": 999,
        "meta_rev_at_epoch": 3674,
        "meta_bstar": 0,
        "meta_mean_motion_dot": -9.8e-07,
        "meta_mean_motion_ddot": 0,
        "tle_line1": "1 41105U 15074A   25357.90099124 -.00000098  00000+0  00000+0 0  9990",
        "tle_line2": "2 41105   6.2519  72.6954 0003513 208.5036 121.3730  1.00272258 36749"
      },
      "geometry": {
        "type": "Point",
        "coordinates": [
          -164.97947687215938,
          5.293983612617259
        ]
      }
    },
    {
      "type": "Feature",
      "properties": {
        "norad_id": 41752,
        "name": "INSAT-3DR",
        "group": "weather",
        "lat": -0.05609131659973351,
        "lon": -76.61028863313682,
        "alt_km": 35727.07297430302,
        "timestamp": "2025-12-24T07:45:05.841761+00:00",
        "meta_object_name": "INSAT-3DR",
        "meta_object_id": "2016-054A",
        "meta_epoch": "2025-12-23T22:02:38.228928",
        "meta_mean_motion": 1.00271452,
        "meta_eccentricity": 0.00142402,
        "meta_inclination": 0.1182,
        "meta_ra_of_asc_node": 86.24,
        "meta_arg_of_pericenter": 185.6045,
        "meta_mean_anomaly": 225.5056,
        "meta_ephemeris_type": 0,
        "meta_classification_type": "U",
        "meta_norad_cat_id": 41752,
        "meta_element_set_no": 999,
        "meta_rev_at_epoch": 3406,
        "meta_bstar": 0,
        "meta_mean_motion_dot": -5.6e-07,
        "meta_mean_motion_ddot": 0,
        "tle_line1": "1 41752U 16054A   25357.91849802 -.00000056  00000+0  00000+0 0  9998",
        "tle_line2": "2 41752   0.1182  86.2400 0014240 185.6045 225.5056  1.00271452 34063"
      },
      "geometry": {
        "type": "Point",
        "coordinates": [
          -76.61028863313682,
          -0.05609131659973351
        ]
      }
    },
    {
      "type": "Feature",
      "properties": {
        "norad_id": 41836,
        "name": "HIMAWARI-9",
        "group": "weather",
        "lat": -0.023533260160342347,
        "lon": -9.867792238752987,
        "alt_km": 35781.16637147085,
        "timestamp": "2025-12-24T07:45:05.841773+00:00",
        "meta_object_name": "HIMAWARI-9",
        "meta_object_id": "2016-064A",
        "meta_epoch": "2025-12-23T10:22:39.677952",
        "meta_mean_motion": 1.00267853,
        "meta_eccentricity": 0.00015362,
        "meta_inclination": 0.0172,
        "meta_ra_of_asc_node": 36.5385,
        "meta_arg_of_pericenter": 294.9233,
        "meta_mean_anomaly": 57.1973,
        "meta_ephemeris_type": 0,
        "meta_classification_type": "U",
        "meta_norad_cat_id": 41836,
        "meta_element_set_no": 999,
        "meta_rev_at_epoch": 3344,
        "meta_bstar": 0,
        "meta_mean_motion_dot": 0,
        "meta_mean_motion_ddot": 0,
        "tle_line1": "1 41836U 16064A   25357.43240368  .00000000  00000+0  00000+0 0  9999",
        "tle_line2": "2 41836   0.0172  36.5385 0001536 294.9233  57.1973  1.00267853 33449"
      },
      "geometry": {
        "type": "Point",
        "coordinates": [
          -9.867792238752987,
          -0.023533260160342347
        ]
      }
    }
  ]
}